1 56937U 23084F   24207.22115513  .00030174  00000+0  10907-2 0  9995
2 56937  97.5410 326.9826 0005650 243.0503 117.0160 15.28388571 61985